LANDSAT 9               
1 49260U 21088A   24027.78083287  .00000884  00000+0  20638-3 0  9999
2 49260  98.2050  99.6893 0000839  91.3071 268.8223 14.57100322124106
